TOMORROW-S2             
1 60485U 24149T   26068.75188364  .00008133  00000+0  27683-3 0  9990
2 60485  97.3857 150.0385 0001648 234.3331 125.7757 15.30674935 86869
STARLINK-36121          
1 66940U 25286R   26068.20377004  .00017854  00000+0  61351-3 0  9996
2 66940  53.1624   0.6176 0001001 112.7165 247.3942 15.30198288 15342
