[{"OBJECT_NAME":"TOMORROW-S2","OBJECT_ID":"2024-149T","EPOCH":"2026-03-09T18:02:42.746496","MEAN_MOTION":15.30674935,"ECCENTRICITY":0.0001648,"INCLINATION":97.3857,"RA_OF_ASC_NODE":150.0385,"ARG_OF_PERICENTER":234.3331,"MEAN_ANOMALY":125.7757,"EPHEMERIS_TYPE":0,"CLASSIFICATION_TYPE":"U","NORAD_CAT_ID":60485,"ELEMENT_SET_NO":999,"REV_AT_EPOCH":8686,"BSTAR":0.00027683033,"MEAN_MOTION_DOT":8.133e-5,"MEAN_MOTION_DDOT":0},{"OBJECT_NAME":"STARLINK-36121","OBJECT_ID":"2025-286R","EPOCH":"2026-03-09T04:53:25.731456","MEAN_MOTION":15.30198288,"ECCENTRICITY":0.00010019,"INCLINATION":53.1624,"RA_OF_ASC_NODE":0.6176,"ARG_OF_PERICENTER":112.7165,"MEAN_ANOMALY":247.3942,"EPHEMERIS_TYPE":0,"CLASSIFICATION_TYPE":"U","NORAD_CAT_ID":66940,"ELEMENT_SET_NO":999,"REV_AT_EPOCH":1534,"BSTAR":0.00061351436,"MEAN_MOTION_DOT":0.00017854,"MEAN_MOTION_DDOT":0}]
